IRIDIUM 156             
1 43576U 18061H   24366.78363647  .00000638  00000+0  22070-3 0  9996
2 43576  86.3964 279.1926 0001797  90.4304 269.7097 14.34218975337066
IRIDIUM 164             
1 43577U 18061J   24366.62506707  .00001180  00000+0  41423-3 0  9992
2 43577  86.3966 279.2908 0002316  87.4448 272.7013 14.34223543337084
IRIDIUM 159             
1 43578U 18061K   24366.66312752  .00000766  00000+0  26652-3 0  9998
2 43578  86.3965 279.2229 0002226  82.7294 277.4155 14.34219730337056
IRIDIUM 180             
1 43922U 19002A   24366.87193086  .00000023  00000+0  11084-5 0  9998
2 43922  86.3980 216.0163 0001831  86.1804 273.9601 14.34217820312696
IRIDIUM 176             
1 43923U 19002B   24366.29217080  .00003038  00000+0  47770-3 0  9994
2 43923  86.6098 216.2648 0002752  67.2837 292.8671 14.72261868320845
IRIDIUM 168             
1 43924U 19002C   24366.86558474  .00000755  00000+0  26260-3 0  9997
2 43924  86.3981 216.0814 0002082  84.6077 275.5356 14.34213179312672
IRIDIUM 173             
1 43925U 19002D   24366.85290253  .00000101  00000+0  28855-4 0  9993
2 43925  86.3976 215.9975 0001903  86.1618 273.9795 14.34216989312651
IRIDIUM 169             
1 43926U 19002E   24366.38547620  .00001058  00000+0  33935-3 0  9991
2 43926  86.4222 247.8025 0000835  30.0125 330.1121 14.38613378313625
IRIDIUM 172             
1 43927U 19002F   24366.98609600  .00000521  00000+0  17911-3 0  9995
2 43927  86.3974 215.9481 0002029  84.7214 275.4213 14.34219355312684
IRIDIUM 175             
1 43928U 19002G   24366.42277623  .00001209  00000+0  18774-3 0  9993
2 43928  86.1524 178.2669 0001320 135.4854 224.6468 14.72260587320851
IRIDIUM 171             
1 43929U 19002H   24366.82753357  .00000016  00000+0 -11782-5 0  9991
2 43929  86.3987 216.2614 0002009  98.8541 261.2882 14.34217626312650
IRIDIUM 170             
1 43930U 19002J   24366.84210714  .00003341  00000+0  52577-3 0  9998
2 43930  86.6098 216.0406 0002366  79.8137 280.3347 14.72255648320937
IRIDIUM 167             
1 43931U 19002K   25001.10026415  .00000898  00000+0  31362-3 0  9991
2 43931  86.3974 215.9181 0001760  98.8592 261.2803 14.34217884312696
IRIDIUM 181             
1 56726U 23068S   24366.65928281  .00001398  00000+0  40708-3 0  9999
2 56726  86.6868 278.8545 0002435  92.8794 267.2686 14.43579628 85629
IRIDIUM 177             
1 56727U 23068T   24366.55432735  .00004249  00000+0  55571-3 0  9995
2 56727  86.1977 221.6352 0001740  90.0250 270.1170 14.80224753 87577
IRIDIUM 174             
1 56728U 23068U   24366.54888973  .00004234  00000+0  55376-3 0  9991
2 56728  86.1976 221.7574 0002300  90.3648 269.7836 14.80217215 87579
IRIDIUM 178             
1 56729U 23068V   24366.54347388  .00004042  00000+0  52827-3 0  9997
2 56729  86.5772 248.5602 0002717  89.9876 270.1657 14.80243543 87576
IRIDIUM 179             
1 56730U 23068W   24366.40282495  .00004243  00000+0  55463-3 0  9993
2 56730  86.6782 255.2378 0002350  82.1181 278.0308 14.80253123 87555
